0 FENGYUN 1C DEB
1 31847U 99025CJM 13283.76401656  .00001638  00000-0  11884-2 0  1703
2 31847 099.2421 272.7608 0106059 264.7237 094.1758 13.95266244329444
0 FENGYUN 1C DEB
1 31847U 99025CJM 13283.76402679  .00002594  00000-0  18325-2 0  1696
2 31847 099.2467 272.7676 0105224 263.9935 094.9699 13.95268403329449
0 FENGYUN 1C DEB
1 31847U 99025CJM 13285.19821222  .00001666  00000-0  12070-2 0  1728
2 31847 099.2397 274.1958 0106556 261.0897 097.8360 13.95271924329646
0 FENGYUN 1C DEB
1 31847U 99025CJM 13291.79544898  .00001913  00000-0  13804-2 0  1734
2 31847 099.2451 280.8223 0106484 240.2264 118.9910 13.95300946330569
0 FENGYUN 1C DEB
1 31847U 99025CJM 13295.81106645  .00001990  00000-0  14358-2 0  1746
2 31847 099.2418 284.8486 0105456 230.0956 129.0942 13.95318304331128
